[{"OBJECT_NAME":"CURTIS","OBJECT_ID":"1998-067WG","EPOCH":"2024-05-08T23:26:48.164640","MEAN_MOTION":15.55130715,"ECCENTRICITY":0.000163,"INCLINATION":51.6338,"RA_OF_ASC_NODE":149.2796,"ARG_OF_PERICENTER":101.4702,"MEAN_ANOMALY":258.6472,"EPHEMERIS_TYPE":0,"CLASSIFICATION_TYPE":"U","NORAD_CAT_ID":59507,"ELEMENT_SET_NO":999,"REV_AT_EPOCH":436,"BSTAR":0.00096605,"MEAN_MOTION_DOT":0.00066412,"MEAN_MOTION_DDOT":0},{"OBJECT_NAME":"KASHIWA","OBJECT_ID":"1998-067WH","EPOCH":"2024-05-08T10:52:35.969376","MEAN_MOTION":15.56340642,"ECCENTRICITY":0.0002884,"INCLINATION":51.6337,"RA_OF_ASC_NODE":151.7802,"ARG_OF_PERICENTER":96.6079,"MEAN_ANOMALY":263.5241,"EPHEMERIS_TYPE":0,"CLASSIFICATION_TYPE":"U","NORAD_CAT_ID":59508,"ELEMENT_SET_NO":999,"REV_AT_EPOCH":428,"BSTAR":0.0012306,"MEAN_MOTION_DOT":0.00088878,"MEAN_MOTION_DDOT":0},{"OBJECT_NAME":"1998-067WJ","OBJECT_ID":"1998-067WJ","EPOCH":"2024-05-08T23:50:31.532064","MEAN_MOTION":15.5421081,"ECCENTRICITY":0.0004934,"INCLINATION":51.6352,"RA_OF_ASC_NODE":149.3927,"ARG_OF_PERICENTER":75.1638,"MEAN_ANOMALY":284.9899,"EPHEMERIS_TYPE":0,"CLASSIFICATION_TYPE":"U","NORAD_CAT_ID":59559,"ELEMENT_SET_NO":999,"REV_AT_EPOCH":323,"BSTAR":0.00095997,"MEAN_MOTION_DOT":0.00063795,"MEAN_MOTION_DDOT":0},{"OBJECT_NAME":"1998-067WK","OBJECT_ID":"1998-067WK","EPOCH":"2024-05-08T23:33:34.532352","MEAN_MOTION":15.55918508,"ECCENTRICITY":0.0007105,"INCLINATION":51.6349,"RA_OF_ASC_NODE":149.3135,"ARG_OF_PERICENTER":85.4197,"MEAN_ANOMALY":274.7606,"EPHEMERIS_TYPE":0,"CLASSIFICATION_TYPE":"U","NORAD_CAT_ID":59560,"ELEMENT_SET_NO":999,"REV_AT_EPOCH":315,"BSTAR":0.0014945,"MEAN_MOTION_DOT":0.00106686,"MEAN_MOTION_DDOT":0},{"OBJECT_NAME":"1998-067WL","OBJECT_ID":"1998-067WL","EPOCH":"2024-05-08T08:42:20.237472","MEAN_MOTION":15.52592728,"ECCENTRICITY":0.000278,"INCLINATION":51.6357,"RA_OF_ASC_NODE":152.6792,"ARG_OF_PERICENTER":98.5651,"MEAN_ANOMALY":261.5654,"EPHEMERIS_TYPE":0,"CLASSIFICATION_TYPE":"U","NORAD_CAT_ID":59561,"ELEMENT_SET_NO":999,"REV_AT_EPOCH":310,"BSTAR":0.00051054,"MEAN_MOTION_DOT":0.00031623,"MEAN_MOTION_DDOT":0},{"OBJECT_NAME":"BURSTCUBE","OBJECT_ID":"1998-067WM","EPOCH":"2024-05-08T23:52:55.364736","MEAN_MOTION":15.54147491,"ECCENTRICITY":0.0002632,"INCLINATION":51.6351,"RA_OF_ASC_NODE":149.4024,"ARG_OF_PERICENTER":117.5195,"MEAN_ANOMALY":242.6063,"EPHEMERIS_TYPE":0,"CLASSIFICATION_TYPE":"U","NORAD_CAT_ID":59562,"ELEMENT_SET_NO":999,"REV_AT_EPOCH":321,"BSTAR":0.00095233,"MEAN_MOTION_DOT":0.00063112,"MEAN_MOTION_DDOT":0},{"OBJECT_NAME":"1998-067WN","OBJECT_ID":"1998-067WN","EPOCH":"2024-05-08T23:58:11.728704","MEAN_MOTION":15.53686017,"ECCENTRICITY":0.0003114,"INCLINATION":51.6355,"RA_OF_ASC_NODE":149.4273,"ARG_OF_PERICENTER":129.054,"MEAN_ANOMALY":231.0728,"EPHEMERIS_TYPE":0,"CLASSIFICATION_TYPE":"U","NORAD_CAT_ID":59563,"ELEMENT_SET_NO":999,"REV_AT_EPOCH":320,"BSTAR":0.00076265,"MEAN_MOTION_DOT":0.00049516,"MEAN_MOTION_DDOT":0},{"OBJECT_NAME":"SHENZHOU-18 (SZ-18)","OBJECT_ID":"2024-078A","EPOCH":"2024-05-08T13:24:27.582912","MEAN_MOTION":15.63411877,"ECCENTRICITY":0.0003902,"INCLINATION":41.4681,"RA_OF_ASC_NODE":325.2027,"ARG_OF_PERICENTER":308.5199,"MEAN_ANOMALY":51.5291,"EPHEMERIS_TYPE":0,"CLASSIFICATION_TYPE":"U","NORAD_CAT_ID":59591,"ELEMENT_SET_NO":999,"REV_AT_EPOCH":17289,"BSTAR":0.0004696,"MEAN_MOTION_DOT":0.00044503,"MEAN_MOTION_DDOT":0},{"OBJECT_NAME":"1998-067WP","OBJECT_ID":"1998-067WP","EPOCH":"2024-05-08T12:56:24.246528","MEAN_MOTION":15.54734172,"ECCENTRICITY":0.0005166,"INCLINATION":51.635,"RA_OF_ASC_NODE":151.608,"ARG_OF_PERICENTER":73.0758,"MEAN_ANOMALY":287.0799,"EPHEMERIS_TYPE":0,"CLASSIFICATION_TYPE":"U","NORAD_CAT_ID":59596,"ELEMENT_SET_NO":999,"REV_AT_EPOCH":317,"BSTAR":0.0011065,"MEAN_MOTION_DOT":0.00075147,"MEAN_MOTION_DDOT":0},{"OBJECT_NAME":"1998-067WQ","OBJECT_ID":"1998-067WQ","EPOCH":"2024-05-08T14:28:37.834752","MEAN_MOTION":15.54780191,"ECCENTRICITY":0.0005199,"INCLINATION":51.6358,"RA_OF_ASC_NODE":151.2866,"ARG_OF_PERICENTER":73.4697,"MEAN_ANOMALY":286.6865,"EPHEMERIS_TYPE":0,"CLASSIFICATION_TYPE":"U","NORAD_CAT_ID":59597,"ELEMENT_SET_NO":999,"REV_AT_EPOCH":315,"BSTAR":0.0011126,"MEAN_MOTION_DOT":0.00075697,"MEAN_MOTION_DDOT":0},{"OBJECT_NAME":"SZ-17 MODULE","OBJECT_ID":"2023-164C","EPOCH":"2024-05-08T19:41:15.555552","MEAN_MOTION":15.62250315,"ECCENTRICITY":0.0005736,"INCLINATION":41.4784,"RA_OF_ASC_NODE":323.6878,"ARG_OF_PERICENTER":330.8958,"MEAN_ANOMALY":29.1561,"EPHEMERIS_TYPE":0,"CLASSIFICATION_TYPE":"U","NORAD_CAT_ID":59624,"ELEMENT_SET_NO":999,"REV_AT_EPOCH":137,"BSTAR":0.00039322,"MEAN_MOTION_DOT":0.00035514,"MEAN_MOTION_DDOT":0}]
