CURTIS                  
1 59507U 98067WG  24129.97694635  .00066412  00000+0  96605-3 0  9990
2 59507  51.6338 149.2796 0001630 101.4702 258.6472 15.55130715  4367
KASHIWA                 
1 59508U 98067WH  24129.45319409  .00088878  00000+0  12306-2 0  9992
2 59508  51.6337 151.7802 0002884  96.6079 263.5241 15.56340642  4280
1998-067WJ              
1 59559U 98067WJ  24129.99342051  .00063795  00000+0  95997-3 0  9995
2 59559  51.6352 149.3927 0004934  75.1638 284.9899 15.54210810  3236
1998-067WK              
1 59560U 98067WK  24129.98164968  .00106686  00000+0  14945-2 0  9995
2 59560  51.6349 149.3135 0007105  85.4197 274.7606 15.55918508  3156
1998-067WL              
1 59561U 98067WL  24129.36273423  .00031623  00000+0  51054-3 0  9996
2 59561  51.6357 152.6792 0002780  98.5651 261.5654 15.52592728  3107
BURSTCUBE               
1 59562U 98067WM  24129.99508524  .00063112  00000+0  95233-3 0  9994
2 59562  51.6351 149.4024 0002632 117.5195 242.6063 15.54147491  3216
1998-067WN              
1 59563U 98067WN  24129.99874686  .00049516  00000+0  76265-3 0  9996
2 59563  51.6355 149.4273 0003114 129.0540 231.0728 15.53686017  3205
SHENZHOU-18 (SZ-18)     
1 59591U 24078A   24129.55865258  .00044503  00000+0  46960-3 0  9995
2 59591  41.4681 325.2027 0003902 308.5199  51.5291 15.63411877172898
1998-067WP              
1 59596U 98067WP  24129.53916952  .00075147  00000+0  11065-2 0  9990
2 59596  51.6350 151.6080 0005166  73.0758 287.0799 15.54734172  3177
1998-067WQ              
1 59597U 98067WQ  24129.60321568  .00075697  00000+0  11126-2 0  9990
2 59597  51.6358 151.2866 0005199  73.4697 286.6865 15.54780191  3155
SZ-17 MODULE            
1 59624U 23164C   24129.82031893  .00035514  00000+0  39322-3 0  9993
2 59624  41.4784 323.6878 0005736 330.8958  29.1561 15.62250315  1375
